{"fetched_at":"2026-07-20T18:28:50.031Z","source":"https://celestrak.org/NORAD/elements/gp.php?GROUP=kuiper&FORMAT=JSON","constellation":"kuiper","records":[{"OBJECT_NAME":"KUIPER-00027","OBJECT_ID":"2025-088S","EPOCH":"2026-07-19T08:14:47.538528","CLASSIFICATION_TYPE":"U","MEAN_MOTION":14.79934384,"ECCENTRICITY":0.00003469,"INCLINATION":51.9007,"RA_OF_ASC_NODE":233.4259,"ARG_OF_PERICENTER":58.4013,"MEAN_ANOMALY":301.6983,"EPHEMERIS_TYPE":0,"NORAD_CAT_ID":63740,"ELEMENT_SET_NO":999,"REV_AT_EPOCH":6711,"BSTAR":0.000073075208,"MEAN_MOTION_DOT":0.00000336,"MEAN_MOTION_DDOT":0},{"OBJECT_NAME":"KUIPER-00028","OBJECT_ID":"2025-088T","EPOCH":"2026-07-20T01:19:42.409344","CLASSIFICATION_TYPE":"U","MEAN_MOTION":14.79937583,"ECCENTRICITY":0.00003551,"INCLINATION":51.8986,"RA_OF_ASC_NODE":227.7283,"ARG_OF_PERICENTER":49.2027,"MEAN_ANOMALY":310.8966,"EPHEMERIS_TYPE":0,"NORAD_CAT_ID":63741,"ELEMENT_SET_NO":999,"REV_AT_EPOCH":6766,"BSTAR":0.000046498955,"MEAN_MOTION_DOT":0.00000133,"MEAN_MOTION_DDOT":0},{"OBJECT_NAME":"KUIPER-00029","OBJECT_ID":"2025-088U","EPOCH":"2026-07-20T02:22:25.925088","CLASSIFICATION_TYPE":"U","MEAN_MOTION":14.79941521,"ECCENTRICITY":0.00004885,"INCLINATION":51.9007,"RA_OF_ASC_NODE":226.2218,"ARG_OF_PERICENTER":332.4748,"MEAN_ANOMALY":27.6188,"EPHEMERIS_TYPE":0,"NORAD_CAT_ID":63742,"ELEMENT_SET_NO":999,"REV_AT_EPOCH":6721,"BSTAR":0.00014886354,"MEAN_MOTION_DOT":0.00000914,"MEAN_MOTION_DDOT":0},{"OBJECT_NAME":"KUIPER-00030","OBJECT_ID":"2025-088V","EPOCH":"2026-07-19T12:43:13.658016","CLASSIFICATION_TYPE":"U","MEAN_MOTION":14.79928369,"ECCENTRICITY":0.0000293,"INCLINATION":51.9009,"RA_OF_ASC_NODE":247.5624,"ARG_OF_PERICENTER":96.1628,"MEAN_ANOMALY":263.9368,"EPHEMERIS_TYPE":0,"NORAD_CAT_ID":63743,"ELEMENT_SET_NO":999,"REV_AT_EPOCH":6715,"BSTAR":0.000051085,"MEAN_MOTION_DOT":0.00000168,"MEAN_MOTION_DDOT":0},{"OBJECT_NAME":"KUIPER-00031","OBJECT_ID":"2025-088W","EPOCH":"2026-07-20T06:00:04.000320","CLASSIFICATION_TYPE":"U","MEAN_MOTION":14.78360887,"ECCENTRICITY":0.00011355,"INCLINATION":51.8989,"RA_OF_ASC_NODE":229.3841,"ARG_OF_PERICENTER":95.8737,"MEAN_ANOMALY":245.829,"EPHEMERIS_TYPE":0,"NORAD_CAT_ID":63744,"ELEMENT_SET_NO":999,"REV_AT_EPOCH":495,"BSTAR":0.0050315066,"MEAN_MOTION_DOT":0.00036939,"MEAN_MOTION_DDOT":0},{"OBJECT_NAME":"KUIPER-00032","OBJECT_ID":"2025-088X","EPOCH":"2026-07-19T23:37:51.091104","CLASSIFICATION_TYPE":"U","MEAN_MOTION":15.410231,"ECCENTRICITY":0.00028535,"INCLINATION":51.8672,"RA_OF_ASC_NODE":102.5996,"ARG_OF_PERICENTER":220.8672,"MEAN_ANOMALY":139.2102,"EPHEMERIS_TYPE":0,"NORAD_CAT_ID":63745,"ELEMENT_SET_NO":999,"REV_AT_EPOCH":6992,"BSTAR":0.00022904385,"MEAN_MOTION_DOT":0.0000921,"MEAN_MOTION_DDOT":0},{"OBJECT_NAME":"KUIPER-00033","OBJECT_ID":"2025-088Y","EPOCH":"2026-07-20T03:43:44.420736","CLASSIFICATION_TYPE":"U","MEAN_MOTION":14.79927485,"ECCENTRICITY":0.00003091,"INCLINATION":51.901,"RA_OF_ASC_NODE":259.82,"ARG_OF_PERICENTER":90.2708,"MEAN_ANOMALY":269.829,"EPHEMERIS_TYPE":0,"NORAD_CAT_ID":63746,"ELEMENT_SET_NO":999,"REV_AT_EPOCH":6723,"BSTAR":0.00017710823,"MEAN_MOTION_DOT":0.00001129,"MEAN_MOTION_DDOT":0},{"OBJECT_NAME":"KUIPER-00034","OBJECT_ID":"2025-088Z","EPOCH":"2026-07-20T01:27:31.089600","CLASSIFICATION_TYPE":"U","MEAN_MOTION":14.79930997,"ECCENTRICITY":0.0000569,"INCLINATION":51.9004,"RA_OF_ASC_NODE":222.7707,"ARG_OF_PERICENTER":56.7295,"MEAN_ANOMALY":303.3722,"EPHEMERIS_TYPE":0,"NORAD_CAT_ID":63747,"ELEMENT_SET_NO":999,"REV_AT_EPOCH":6742,"BSTAR":0.000040355954,"MEAN_MOTION_DOT":8.7e-7,"MEAN_MOTION_DDOT":0},{"OBJECT_NAME":"KUIPER-00035","OBJECT_ID":"2025-088AA","EPOCH":"2026-07-19T08:36:15.057504","CLASSIFICATION_TYPE":"U","MEAN_MOTION":14.79926802,"ECCENTRICITY":0.00003273,"INCLINATION":51.8992,"RA_OF_ASC_NODE":250.8503,"ARG_OF_PERICENTER":66.1325,"MEAN_ANOMALY":293.9671,"EPHEMERIS_TYPE":0,"NORAD_CAT_ID":63748,"ELEMENT_SET_NO":999,"REV_AT_EPOCH":6702,"BSTAR":0.000051766115,"MEAN_MOTION_DOT":0.00000174,"MEAN_MOTION_DDOT":0},{"OBJECT_NAME":"KUIPER-00037","OBJECT_ID":"2025-088AB","EPOCH":"2026-07-20T03:52:56.636832","CLASSIFICATION_TYPE":"U","MEAN_MOTION":14.79937551,"ECCENTRICITY":0.00002838,"INCLINATION":51.9005,"RA_OF_ASC_NODE":246.1558,"ARG_OF_PERICENTER":79.9176,"MEAN_ANOMALY":280.1818,"EPHEMERIS_TYPE":0,"NORAD_CAT_ID":63749,"ELEMENT_SET_NO":999,"REV_AT_EPOCH":6794,"BSTAR":0.000059150233,"MEAN_MOTION_DOT":0.0000023,"MEAN_MOTION_DDOT":0},{"OBJECT_NAME":"KUIPER-00038","OBJECT_ID":"2025-088AC","EPOCH":"2026-07-19T11:25:24.717792","CLASSIFICATION_TYPE":"U","MEAN_MOTION":14.79930329,"ECCENTRICITY":0.00003566,"INCLINATION":51.9009,"RA_OF_ASC_NODE":235.3555,"ARG_OF_PERICENTER":69.94,"MEAN_ANOMALY":290.1601,"EPHEMERIS_TYPE":0,"NORAD_CAT_ID":63750,"ELEMENT_SET_NO":999,"REV_AT_EPOCH":6703,"BSTAR":0.000050859822,"MEAN_MOTION_DOT":0.00000167,"MEAN_MOTION_DDOT":0},{"OBJECT_NAME":"KUIPER-00039","OBJECT_ID":"2025-134A","EPOCH":"2026-07-20T04:35:34.489824","CLASSIFICATION_TYPE":"U","MEAN_MOTION":14.79930868,"ECCENTRICITY":0.00006978,"INCLINATION":51.9027,"RA_OF_ASC_NODE":7.1878,"ARG_OF_PERICENTER":123.8319,"MEAN_ANOMALY":236.271,"EPHEMERIS_TYPE":0,"NORAD_CAT_ID":64500,"ELEMENT_SET_NO":999,"REV_AT_EPOCH":5969,"BSTAR":0.00024625757,"MEAN_MOTION_DOT":0.00001657,"MEAN_MOTION_DDOT":0},{"OBJECT_NAME":"KUIPER-00040","OBJECT_ID":"2025-134B","EPOCH":"2026-07-20T05:08:40.390368","CLASSIFICATION_TYPE":"U","MEAN_MOTION":14.79937515,"ECCENTRICITY":0.00006723,"INCLINATION":51.9005,"RA_OF_ASC_NODE":17.1638,"ARG_OF_PERICENTER":119.1403,"MEAN_ANOMALY":240.9627,"EPHEMERIS_TYPE":0,"NORAD_CAT_ID":64501,"ELEMENT_SET_NO":999,"REV_AT_EPOCH":5955,"BSTAR":0.0002733439,"MEAN_MOTION_DOT":0.00001863,"MEAN_MOTION_DDOT":0},{"OBJECT_NAME":"KUIPER-00041","OBJECT_ID":"2025-134C","EPOCH":"2026-07-19T18:32:41.255808","CLASSIFICATION_TYPE":"U","MEAN_MOTION":14.7993169,"ECCENTRICITY":0.0000682,"INCLINATION":51.9006,"RA_OF_ASC_NODE":21.5026,"ARG_OF_PERICENTER":114.0195,"MEAN_ANOMALY":246.0839,"EPHEMERIS_TYPE":0,"NORAD_CAT_ID":64502,"ELEMENT_SET_NO":999,"REV_AT_EPOCH":5945,"BSTAR":0.00021078484,"MEAN_MOTION_DOT":0.00001386,"MEAN_MOTION_DDOT":0},{"OBJECT_NAME":"KUIPER-00042","OBJECT_ID":"2025-134D","EPOCH":"2026-07-19T17:51:50.104224","CLASSIFICATION_TYPE":"U","MEAN_MOTION":14.79929179,"ECCENTRICITY":0.00007417,"INCLINATION":51.902,"RA_OF_ASC_NODE":16.6073,"ARG_OF_PERICENTER":116.7421,"MEAN_ANOMALY":243.3618,"EPHEMERIS_TYPE":0,"NORAD_CAT_ID":64503,"ELEMENT_SET_NO":999,"REV_AT_EPOCH":5952,"BSTAR":0.00024495959,"MEAN_MOTION_DOT":0.00001647,"MEAN_MOTION_DDOT":0},{"OBJECT_NAME":"KUIPER-00043","OBJECT_ID":"2025-134E","EPOCH":"2026-07-20T03:46:55.965216","CLASSIFICATION_TYPE":"U","MEAN_MOTION":14.79939708,"ECCENTRICITY":0.00006635,"INCLINATION":51.9033,"RA_OF_ASC_NODE":7.2787,"ARG_OF_PERICENTER":124.2648,"MEAN_ANOMALY":235.8377,"EPHEMERIS_TYPE":0,"NORAD_CAT_ID":64504,"ELEMENT_SET_NO":999,"REV_AT_EPOCH":5969,"BSTAR":0.00025812611,"MEAN_MOTION_DOT":0.00001747,"MEAN_MOTION_DDOT":0}]}
