KUIPER-00027            
1 63740U 25088S   26200.34360577  .00000336  00000+0  73075-4 0  9995
2 63740  51.9007 233.4259 0000346  58.4013 301.6983 14.79934384 67113
KUIPER-00028            
1 63741U 25088T   26201.05535196  .00000133  00000+0  46499-4 0  9991
2 63741  51.8986 227.7283 0000355  49.2027 310.8966 14.79937583 67662
KUIPER-00029            
1 63742U 25088U   26201.09891117  .00000914  00000+0  14886-3 0  9995
2 63742  51.9007 226.2218 0000488 332.4748  27.6188 14.79941521 67211
KUIPER-00030            
1 63743U 25088V   26200.53001919  .00000168  00000+0  51085-4 0  9991
2 63743  51.9009 247.5624 0000293  96.1628 263.9368 14.79928369 67159
KUIPER-00031            
1 63744U 25088W   26201.25004630  .00036939  00000+0  50315-2 0  9993
2 63744  51.8989 229.3841 0001135  95.8737 245.8290 14.78360887  4954
KUIPER-00032            
1 63745U 25088X   26200.98461911  .00009210  00000+0  22904-3 0  9998
2 63745  51.8672 102.5996 0002853 220.8672 139.2102 15.41023100 69924
KUIPER-00033            
1 63746U 25088Y   26201.15537524  .00001129  00000+0  17711-3 0  9994
2 63746  51.9010 259.8200 0000309  90.2708 269.8290 14.79927485 67238
KUIPER-00034            
1 63747U 25088Z   26201.06077650  .00000087  00000+0  40356-4 0  9998
2 63747  51.9004 222.7707 0000569  56.7295 303.3722 14.79930997 67426
KUIPER-00035            
1 63748U 25088AA  26200.35850761  .00000174  00000+0  51766-4 0  9996
2 63748  51.8992 250.8503 0000327  66.1325 293.9671 14.79926802 67022
KUIPER-00037            
1 63749U 25088AB  26201.16176663  .00000230  00000+0  59150-4 0  9997
2 63749  51.9005 246.1558 0000283  79.9176 280.1818 14.79937551 67949
KUIPER-00038            
1 63750U 25088AC  26200.47598053  .00000167  00000+0  50860-4 0  9991
2 63750  51.9009 235.3555 0000356  69.9400 290.1601 14.79930329 67039
KUIPER-00039            
1 64500U 25134A   26201.19137141  .00001657  00000+0  24626-3 0  9999
2 64500  51.9027   7.1878 0000697 123.8319 236.2710 14.79930868 59696
KUIPER-00040            
1 64501U 25134B   26201.21435637  .00001863  00000+0  27334-3 0  9992
2 64501  51.9005  17.1638 0000672 119.1403 240.9627 14.79937515 59553
KUIPER-00041            
1 64502U 25134C   26200.77269972  .00001386  00000+0  21078-3 0  9999
2 64502  51.9006  21.5026 0000682 114.0195 246.0839 14.79931690 59457
KUIPER-00042            
1 64503U 25134D   26200.74432991  .00001647  00000+0  24496-3 0  9997
2 64503  51.9020  16.6073 0000741 116.7421 243.3618 14.79929179 59520
KUIPER-00043            
1 64504U 25134E   26201.15759219  .00001747  00000+0  25813-3 0  9994
2 64504  51.9033   7.2787 0000663 124.2648 235.8377 14.79939708 59696
